Data used
----------
2019-12-07T06:42:21_437.150_4171_44828.dat (SMOG-P)
2019-12-07T06:42:21_437.175_4171_44828.dat (ATL-1)
2019-12-07T08:13:28_437.150_4171_44828.dat (SMOG-P)
2019-12-07T08:13:28_437.175_4171_44828.dat (ATL-1)

SMOG-P
--------
Matches

44827 0.567 kHz 437.148996 MHz
44828 0.532 kHz 437.149122 MHz
44829 0.185 kHz 437.150101 MHz
44830 0.171 kHz 437.150165 MHz
44831 0.144 kHz 437.150271 MHz
44832 0.134 kHz 437.150461 MHz

ATL-1
--------
Matches

44827 0.485 kHz 437.174286 MHz
44828 0.439 kHz 437.174388 MHz
44829 0.061 kHz 437.175194 MHz
44830 0.063 kHz 437.175248 MHz
44831 0.088 kHz 437.175335 MHz
44832 0.154 kHz 437.175492 MHz

TLEs used
----------

0 TBA - TO BE ASSIGNED
1 44827U 19084D   19341.20561119  .00009801  00000-0  10000-3 0  9992
2 44827  97.0030 205.3520 0040837 253.8341 105.8477 15.64196602   137
0 TBA - TO BE ASSIGNED
1 44828U 19084E   19341.20557113  .00009738  00000-0  10000-3 0  9991
2 44828  97.0025 205.3535 0040851 253.6504 105.9920 15.64035885   121
0 TBA - TO BE ASSIGNED
1 44829U 19084F   19340.88891390 -.00000116  00000-0  00000+0 0  9990
2 44829  97.0015 205.0387 0039594 253.9592 124.1035 15.64520077    71
0 TBA - TO BE ASSIGNED
1 44830U 19084G   19340.88891231 -.00000117  00000-0  00000+0 0  9997
2 44830  97.0065 205.0397 0041009 255.0619 123.0188 15.64531885    72
0 TBA - TO BE ASSIGNED
1 44831U 19084H   19341.20544058 -.00000114  00000-0  00000+0 0  9994
2 44831  97.0383 205.3639 0031032 244.4706 115.3854 15.64569128   134
0 TBA - TO BE ASSIGNED
1 44832U 19084J   19340.88883282 -.00000116  00000-0  00000+0 0  9995
2 44832  97.0011 205.0411 0039352 253.4121 124.3709 15.64625184    79

Comments
---------

The six PQs are grouped in two groups:
- Group A: 44827, 44828
- Group B: 44829, 44830, 44831, 44832

Group A is approx. 30 seconds behind group B.

It now seems that SMOG-P and ATL-1 belong to Group B.

